TDRS 13                 
1 42915U 17047A   26182.43969385 -.00000090  00000+0  00000+0 0  9994
2 42915   3.4549   3.0723 0015172 108.5085 314.7877  1.00272623 32494
QZS-3 (MICHIBIKI-3)     
1 42917U 17048A   26182.53842622 -.00000338  00000+0  00000+0 0  9997
2 42917   0.0753 137.4065 0002267 320.8305 142.2185  1.00269544 32407
AMAZONAS 5              
1 42934U 17053A   26180.57634279 -.00000271  00000+0  00000+0 0  9997
2 42934   0.0312 327.8909 0001878  96.5276 359.7120  1.00270165 32168
ASIASAT 9               
1 42942U 17057A   26181.70252964  .00000000  00000+0  00000+0 0  9992
2 42942   0.0442  61.5216 0002504  30.1213 202.2028  1.00269722 31992
INTELSAT 37E (IS-37E)   
1 42950U 17059A   26182.36714472  .00000000  00000+0  00000+0 0  9993
2 42950   0.0252  37.6937 0002881  66.4474 289.4444  1.00268190 32205
BSAT-4A                 
1 42951U 17059B   26182.59156623 -.00000340  00000+0  00000+0 0  9995
2 42951   0.0418  31.6365 0004022  43.9044 166.9018  1.00271885 31942
QZS-4 (MICHIBIKI-4)     
1 42965U 17062A   26181.32690646 -.00000331  00000+0  00000+0 0  9992
2 42965  40.1009 343.3188 0746709 268.3129 282.6055  1.00295775 31936
SES-11 (ECHOSTAR 105)   
1 42967U 17063A   26182.55968187 -.00000079  00000+0  00000+0 0  9998
2 42967   0.0219 327.1129 0002976 131.6780 277.3627  1.00271718 31866
KOREASAT 5A             
1 42984U 17067A   26182.25040990 -.00000348  00000+0  00000+0 0  9990
2 42984   0.0134  40.8325 0001009  63.4947  18.2771  1.00270199 31674
ALCOMSAT 1              
1 43039U 17078A   26182.36575804 -.00000176  00000+0  00000+0 0  9992
2 43039   0.0177  50.7224 0002610  44.5101 291.0512  1.00270944 31438
SBIRS GEO-3 (USA 282)   
1 43162U 18009A   26182.56269812  .00000138  00000+0  00000+0 0  9992
2 43162   2.1936  12.7496 0002270  82.0206 228.0192  1.00272679 30985
AL YAH 3                
1 43174U 18012A   26182.43796051 -.00000146  00000+0  00000+0 0  9995
2 43174   1.5867  82.9514 0004130  14.8120 319.2805  1.00271471 30982
SES-14                  
1 43175U 18012B   26182.50382962 -.00000268  00000+0  00000+0 0  9991
2 43175   0.0155  28.9013 0001245  70.4848 314.0478  1.00270724  7163
GOES 17                 
1 43226U 18022A   26182.56925404 -.00000173  00000+0  00000+0 0  9994
2 43226   0.9717  85.4856 0000745  36.8203 272.7503  1.00272068 30563
HISPASAT 30W-6          
1 43228U 18023A   26182.50703630 -.00000205  00000+0  00000+0 0  9992
2 43228   0.0435  45.5857 0005902  35.0626 351.4441  1.00272912 30543
SUPERBIRD-B3            
1 43271U 18033A   26182.60479096 -.00000082  00000+0  00000+0 0  9991
2 43271   0.0164   8.9480 0001229  90.2523 200.1915  1.00272340 30206
HYLAS 4                 
1 43272U 18033B   26182.50660296  .00000000  00000+0  00000+0 0  9994
2 43272   0.0233  29.0391 0000933  95.0099 304.3776  1.00268839 30201
IRNSS-1I                
1 43286U 18035A   26179.79558490  .00000066  00000+0  00000+0 0  9992
2 43286  28.7805  74.0157 0017671 182.6115   1.5908  1.00277388 30197
USA 283                 
1 43339U 18036A   26182.46854735  .00000000  00000+0  00000+0 0  9999
2 43339   0.0077  35.3198 0000064   9.2412 177.7500  1.00269042 25430
COSMOS 2526             
1 43432U 18037A   26181.68313230 -.00000333  00000+0  00000+0 0  9997
2 43432   0.0324  68.9170 0000318 293.2676 290.5648  1.00282126 30093
APSTAR-6C               
1 43450U 18041A   26181.68434565 -.00000307  00000+0  00000+0 0  9998
2 43450   0.0446 304.3996 0000393  88.0346 266.6778  1.00270860 29940
BANGABANDHUSAT-1        
1 43463U 18044A   26182.53686620 -.00000352  00000+0  00000+0 0  9991
2 43463   0.0242  87.1265 0002087  19.5504 125.2727  1.00269718 29854
SES-12                  
1 43488U 18049A   26182.38946984 -.00000259  00000+0  00000+0 0  9994
2 43488   0.0113   9.0547 0000386 263.7980 241.7997  1.00272298 29563
FENGYUN 2H              
1 43491U 18050A   26182.52896306 -.00000120  00000+0  00000+0 0  9995
2 43491   3.0669  78.9122 0001769 121.5363 348.8645  1.00269605 29581
BEIDOU-2 IGSO-7         
1 43539U 18057A   26181.48163089 -.00000036  00000+0  00000+0 0  9990
2 43539  55.1979 162.9413 0104797 237.9284 159.8469  1.00247568 29265
TELSTAR 19V             
1 43562U 18059A   26182.50079627 -.00000269  00000+0  00000+0 0  9994
2 43562   0.0231 129.7660 0003114 349.9729 277.0975  1.00270601 29286
TELKOM 4 (MERAH PUTIH)  
1 43587U 18064A   26182.59374520 -.00000333  00000+0  00000+0 0  9998
2 43587   0.0160 324.4250 0001778 165.1155 111.8477  1.00271112 29020
TELSTAR 18V             
1 43611U 18069A   26181.97026081 -.00000283  00000+0  00000+0 0  9992
2 43611   0.0175 302.5030 0002215 152.1071 311.7084  1.00273522 28770
AZERSPACE 2 (IS-38)     
1 43632U 18074A   26182.59351193  .00000000  00000+0  00000+0 0  9991
2 43632   0.0255  35.0828 0001627  70.9209  72.4128  1.00270322 28596
HORIZONS-3E             
1 43633U 18074B   26182.59320846 -.00000020  00000+0  00000+0 0  9996
2 43633   0.0185 202.8567 0000562  76.6574  22.6970  1.00270279 28489
AEHF-4 (USA 288)        
1 43651U 18079A   26182.49992959 -.00000264  00000+0  00000+0 0  9990
2 43651   1.4364   5.1431 0059850 355.6353  31.1733  1.00268309 28445
BEIDOU-3 G1             
1 43683U 18085A   26182.61621296 -.00000101  00000+0  00000+0 0  9999
2 43683   2.9036  96.9889 0008574 353.0352 211.3972  1.00271089 28205
