OBJECT_NAME,OBJECT_ID,EPOCH,MEAN_MOTION,ECCENTRICITY,INCLINATION,RA_OF_ASC_NODE,ARG_OF_PERICENTER,MEAN_ANOMALY,EPHEMERIS_TYPE,CLASSIFICATION_TYPE,NORAD_CAT_ID,ELEMENT_SET_NO,REV_AT_EPOCH,BSTAR,MEAN_MOTION_DOT,MEAN_MOTION_DDOT
TDRS 13,2017-047A,2026-07-01T10:33:09.548640,1.00272623,.0015172,3.4549,3.0723,108.5085,314.7877,0,U,42915,999,3249,0,-.9E-6,0
QZS-3 (MICHIBIKI-3),2017-048A,2026-07-01T12:55:20.025408,1.00269544,.00022672,0.0753,137.4065,320.8305,142.2185,0,U,42917,999,3240,0,-.338E-5,0
AMAZONAS 5,2017-053A,2026-06-29T13:49:56.017056,1.00270165,.00018781,0.0312,327.8909,96.5276,359.7120,0,U,42934,999,3216,0,-.271E-5,0
ASIASAT 9,2017-057A,2026-06-30T16:51:38.560896,1.00269722,.00025049,0.0442,61.5216,30.1213,202.2028,0,U,42942,999,3199,0,0,0
INTELSAT 37E (IS-37E),2017-059A,2026-07-01T08:48:41.303808,1.00268190,.0002881,0.0252,37.6937,66.4474,289.4444,0,U,42950,999,3220,0,0,0
BSAT-4A,2017-059B,2026-07-01T14:11:51.322272,1.00271885,.0004022,0.0418,31.6365,43.9044,166.9018,0,U,42951,999,3194,0,-.34E-5,0
QZS-4 (MICHIBIKI-4),2017-062A,2026-06-30T07:50:44.718144,1.00295775,.07467097,40.1009,343.3188,268.3129,282.6055,0,U,42965,999,3193,0,-.331E-5,0
SES-11 (ECHOSTAR 105),2017-063A,2026-07-01T13:25:56.513568,1.00271718,.00029768,0.0219,327.1129,131.6780,277.3627,0,U,42967,999,3186,0,-.79E-6,0
KOREASAT 5A,2017-067A,2026-07-01T06:00:35.415360,1.00270199,.0001009,0.0134,40.8325,63.4947,18.2771,0,U,42984,999,3167,0,-.348E-5,0
ALCOMSAT 1,2017-078A,2026-07-01T08:46:41.494656,1.00270944,.00026108,0.0177,50.7224,44.5101,291.0512,0,U,43039,999,3143,0,-.176E-5,0
SBIRS GEO-3 (USA 282),2018-009A,2026-07-01T13:30:17.117568,1.00272679,.00022703,2.1936,12.7496,82.0206,228.0192,0,U,43162,999,3098,0,.138E-5,0
AL YAH 3,2018-012A,2026-07-01T10:30:39.788064,1.00271471,.00041302,1.5867,82.9514,14.8120,319.2805,0,U,43174,999,3098,0,-.146E-5,0
SES-14,2018-012B,2026-07-01T12:05:30.879168,1.00270724,.00012457,0.0155,28.9013,70.4848,314.0478,0,U,43175,999,716,0,-.268E-5,0
GOES 17,2018-022A,2026-07-01T13:39:43.549056,1.00272068,.00007459,0.9717,85.4856,36.8203,272.7503,0,U,43226,999,3056,0,-.173E-5,0
HISPASAT 30W-6,2018-023A,2026-07-01T12:10:07.936320,1.00272912,.00059023,0.0435,45.5857,35.0626,351.4441,0,U,43228,999,3054,0,-.205E-5,0
SUPERBIRD-B3,2018-033A,2026-07-01T14:30:53.938944,1.00272340,.00012295,0.0164,8.9480,90.2523,200.1915,0,U,43271,999,3020,0,-.82E-6,0
HYLAS 4,2018-033B,2026-07-01T12:09:30.495744,1.00268839,.00009336,0.0233,29.0391,95.0099,304.3776,0,U,43272,999,3020,0,0,0
IRNSS-1I,2018-035A,2026-06-28T19:05:38.535360,1.00277388,.0017671,28.7805,74.0157,182.6115,1.5908,0,U,43286,999,3019,0,.66E-6,0
USA 283,2018-036A,2026-07-01T11:14:42.491040,1.00269042,.0000064,0.0077,35.3198,9.2412,177.7500,0,U,43339,999,2543,0,0,0
COSMOS 2526,2018-037A,2026-06-30T16:23:42.630720,1.00282126,.00003183,0.0324,68.9170,293.2676,290.5648,0,U,43432,999,3009,0,-.333E-5,0
APSTAR-6C,2018-041A,2026-06-30T16:25:27.464160,1.00270860,.0000393,0.0446,304.3996,88.0346,266.6778,0,U,43450,999,2994,0,-.307E-5,0
BANGABANDHUSAT-1,2018-044A,2026-07-01T12:53:05.239680,1.00269718,.00020877,0.0242,87.1265,19.5504,125.2727,0,U,43463,999,2985,0,-.352E-5,0
SES-12,2018-049A,2026-07-01T09:20:50.194176,1.00272298,.00003866,0.0113,9.0547,263.7980,241.7997,0,U,43488,999,2956,0,-.259E-5,0
FENGYUN 2H,2018-050A,2026-07-01T12:41:42.408384,1.00269605,.00017695,3.0669,78.9122,121.5363,348.8645,0,U,43491,999,2958,0,-.12E-5,0
BEIDOU-2 IGSO-7,2018-057A,2026-06-30T11:33:32.908896,1.00247568,.01047979,55.1979,162.9413,237.9284,159.8469,0,U,43539,999,2926,0,-.36E-6,0
TELSTAR 19V,2018-059A,2026-07-01T12:01:08.797728,1.00270601,.00031141,0.0231,129.7660,349.9729,277.0975,0,U,43562,999,2928,0,-.269E-5,0
TELKOM 4 (MERAH PUTIH),2018-064A,2026-07-01T14:14:59.585280,1.00271112,.00017785,0.0160,324.4250,165.1155,111.8477,0,U,43587,999,2902,0,-.333E-5,0
TELSTAR 18V,2018-069A,2026-06-30T23:17:10.533984,1.00273522,.00022156,0.0175,302.5030,152.1071,311.7084,0,U,43611,999,2877,0,-.283E-5,0
AZERSPACE 2 (IS-38),2018-074A,2026-07-01T14:14:39.430752,1.00270322,.00016272,0.0255,35.0828,70.9209,72.4128,0,U,43632,999,2859,0,0,0
HORIZONS-3E,2018-074B,2026-07-01T14:14:13.210944,1.00270279,.00005627,0.0185,202.8567,76.6574,22.6970,0,U,43633,999,2848,0,-.2E-6,0
AEHF-4 (USA 288),2018-079A,2026-07-01T11:59:53.916576,1.00268309,.00598506,1.4364,5.1431,355.6353,31.1733,0,U,43651,999,2844,0,-.264E-5,0
BEIDOU-3 G1,2018-085A,2026-07-01T14:47:20.799744,1.00271089,.00085744,2.9036,96.9889,353.0352,211.3972,0,U,43683,999,2820,0,-.101E-5,0
